start=new Date('2023-05-03T00:00:00.000Z').valueOf();
sats=[{"PERIAPSIS":"546.356","APOAPSIS":"548.128","EPOCH":"2023-05-02T16:46:07.248000","ECCENTRICITY":"0.00012790","OBJECT_TYPE":"PAYLOAD","TIME_SYSTEM":"UTC","SEMIMAJOR_AXIS":"6925.377","CENTER_NAME":"EARTH","TLE_LINE1":"1 47840U 21018BF  23122.69869500  .00003176  00000-0  23205-3 0  9990","INCLINATION":"53.0542","REV_AT_EPOCH":"11982","ELEMENT_SET_NO":"999","FILE":"3899277","MEAN_MOTION_DDOT":"0.0000000000000","OBJECT_NAME":"STARLINK-2432","MEAN_MOTION":"15.06390654","OBJECT_ID":"2021-018BF","RCS_SIZE":"LARGE","MEAN_MOTION_DOT":"0.00003176","TLE_LINE2":"2 47840  53.0542 229.2953 0001279  96.8435 263.2700 15.06390654119820","EPHEMERIS_TYPE":"0","SITE":"AFETR","GP_ID":"231121618","ARG_OF_PERICENTER":"96.8435","MEAN_ANOMALY":"263.2700","DECAY_DATE":null,"LAUNCH_DATE":"2021-03-11","PERIOD":"95.593","RA_OF_ASC_NODE":"229.2953","COUNTRY_CODE":"US","CLASSIFICATION_TYPE":"U","NORAD_CAT_ID":"47840","REF_FRAME":"TEME","BSTAR":"0.00023205000000","MEAN_ELEMENT_THEORY":"SGP4"},{"FILE":"3899277","REV_AT_EPOCH":"11982","INCLINATION":"53.0541","ELEMENT_SET_NO":"999","TLE_LINE1":"1 47841U 21018BG  23122.69500743  .00016696  00000-0  11370-2 0  9992","SEMIMAJOR_AXIS":"6925.342","CENTER_NAME":"EARTH","TIME_SYSTEM":"UTC","OBJECT_TYPE":"PAYLOAD","ECCENTRICITY":"0.00012680","EPOCH":"2023-05-02T16:40:48.641952","APOAPSIS":"548.085","PERIAPSIS":"546.329","REF_FRAME":"TEME","MEAN_ELEMENT_THEORY":"SGP4","BSTAR":"0.00113700000000","CLASSIFICATION_TYPE":"U","NORAD_CAT_ID":"47841","COUNTRY_CODE":"US","MEAN_ANOMALY":"276.3004","LAUNCH_DATE":"2021-03-11","DECAY_DATE":null,"RA_OF_ASC_NODE":"229.3127","PERIOD":"95.592","GP_ID":"231121868","ARG_OF_PERICENTER":"83.8130","TLE_LINE2":"2 47841  53.0541 229.3127 0001268  83.8130 276.3004 15.06402163119821","EPHEMERIS_TYPE":"0","SITE":"AFETR","MEAN_MOTION_DOT":"0.00016696","RCS_SIZE":"LARGE","MEAN_MOTION":"15.06402163","OBJECT_ID":"2021-018BG","OBJECT_NAME":"STARLINK-2433","MEAN_MOTION_DDOT":"0.0000000000000"},{"MEAN_MOTION_DOT":"0.00027423","RCS_SIZE":"LARGE","OBJECT_ID":"2021-018BH","MEAN_MOTION":"15.06401658","MEAN_MOTION_DDOT":"0.0000000000000","OBJECT_NAME":"STARLINK-2434","NORAD_CAT_ID":"47842","CLASSIFICATION_TYPE":"U","BSTAR":"0.00185270000000","MEAN_ELEMENT_THEORY":"SGP4","REF_FRAME":"TEME","DECAY_DATE":null,"PERIOD":"95.592","LAUNCH_DATE":"2021-03-11","RA_OF_ASC_NODE":"258.7766","MEAN_ANOMALY":"261.9615","COUNTRY_CODE":"US","GP_ID":"231123120","ARG_OF_PERICENTER":"98.1465","TLE_LINE2":"2 47842  53.0535 258.7766 0000802  98.1465 261.9615 15.06401658119470","EPHEMERIS_TYPE":"0","SITE":"AFETR","ECCENTRICITY":"0.00008020","OBJECT_TYPE":"PAYLOAD","APOAPSIS":"547.764","EPOCH":"2023-05-02T19:31:57.688032","PERIAPSIS":"546.653","ELEMENT_SET_NO":"999","INCLINATION":"53.0535","REV_AT_EPOCH":"11947","FILE":"3899277","TLE_LINE1":"1 47842U 21018BH  23122.81386213  .00027423  00000-0  18527-2 0  9992","TIME_SYSTEM":"UTC","CENTER_NAME":"EARTH","SEMIMAJOR_AXIS":"6925.343"},{"ECCENTRICITY":"0.00008520","OBJECT_TYPE":"PAYLOAD","PERIAPSIS":"546.613","APOAPSIS":"547.793","EPOCH":"2023-05-02T17:17:16.270080","TLE_LINE1":"1 47843U 21018BJ  23122.72032720  .00003881  00000-0  27923-3 0  9997","REV_AT_EPOCH":"11949","INCLINATION":"53.0544","ELEMENT_SET_NO":"999","FILE":"3899277","TIME_SYSTEM":"UTC","SEMIMAJOR_AXIS":"6925.338","CENTER_NAME":"EARTH","RCS_SIZE":"LARGE","MEAN_MOTION_DOT":"0.00003881","MEAN_MOTION_DDOT":"0.0000000000000","OBJECT_NAME":"STARLINK-2435","MEAN_MOTION":"15.06403547","OBJECT_ID":"2021-018BJ","MEAN_ANOMALY":"276.1945","RA_OF_ASC_NODE":"254.1956","DECAY_DATE":null,"LAUNCH_DATE":"2021-03-11","PERIOD":"95.592","COUNTRY_CODE":"US","NORAD_CAT_ID":"47843","CLASSIFICATION_TYPE":"U","REF_FRAME":"TEME","MEAN_ELEMENT_THEORY":"SGP4","BSTAR":"0.00027923000000","EPHEMERIS_TYPE":"0","TLE_LINE2":"2 47843  53.0544 254.1956 0000852  83.9141 276.1945 15.06403547119495","SITE":"AFETR","GP_ID":"231122863","ARG_OF_PERICENTER":"83.9141"},{"OBJECT_NAME":"STARLINK-2446","MEAN_MOTION_DDOT":"0.0000000000000","OBJECT_ID":"2021-018BK","MEAN_MOTION":"15.06412045","RCS_SIZE":"LARGE","MEAN_MOTION_DOT":"0.00016275","EPHEMERIS_TYPE":"0","TLE_LINE2":"2 47844  53.0538 249.5013 0000970  69.9019 290.2074 15.06412045119538","SITE":"AFETR","GP_ID":"231122119","ARG_OF_PERICENTER":"69.9019","COUNTRY_CODE":"US","RA_OF_ASC_NODE":"249.5013","DECAY_DATE":null,"LAUNCH_DATE":"2021-03-11","PERIOD":"95.591","MEAN_ANOMALY":"290.2074","BSTAR":"0.00110860000000","MEAN_ELEMENT_THEORY":"SGP4","REF_FRAME":"TEME","CLASSIFICATION_TYPE":"U","NORAD_CAT_ID":"47844","PERIAPSIS":"546.505","EPOCH":"2023-05-02T15:39:45.079776","APOAPSIS":"547.848","OBJECT_TYPE":"PAYLOAD","ECCENTRICITY":"0.00009700","CENTER_NAME":"EARTH","SEMIMAJOR_AXIS":"6925.312","TIME_SYSTEM":"UTC","TLE_LINE1":"1 47844U 21018BK  23122.65260509  .00016275  00000-0  11086-2 0  9991","FILE":"3899277","ELEMENT_SET_NO":"999","REV_AT_EPOCH":"11953","INCLINATION":"53.0538"},{"MEAN_MOTION_DOT":"0.00007491","RCS_SIZE":"LARGE","MEAN_MOTION_DDOT":"0.0000000000000","OBJECT_NAME":"STARLINK-2453","MEAN_MOTION":"15.06405328","OBJECT_ID":"2021-018BL","MEAN_ANOMALY":"274.4503","LAUNCH_DATE":"2021-03-11","DECAY_DATE":null,"RA_OF_ASC_NODE":"249.4204","PERIOD":"95.592","COUNTRY_CODE":"US","CLASSIFICATION_TYPE":"U","NORAD_CAT_ID":"47845","REF_FRAME":"TEME","BSTAR":"0.00052117000000","MEAN_ELEMENT_THEORY":"SGP4","TLE_LINE2":"2 47845  53.0537 249.4204 0001234  85.6626 274.4503 15.06405328119540","EPHEMERIS_TYPE":"0","SITE":"AFETR","ARG_OF_PERICENTER":"85.6626","GP_ID":"231122369","ECCENTRICITY":"0.00012340","OBJECT_TYPE":"PAYLOAD","PERIAPSIS":"546.343","APOAPSIS":"548.052","EPOCH":"2023-05-02T16:06:18.855648","TLE_LINE1":"1 47845U 21018BL  23122.67105157  .00007491  00000-0  52117-3 0  9992","INCLINATION":"53.0537","REV_AT_EPOCH":"11954","ELEMENT_SET_NO":"999","FILE":"3899277","TIME_SYSTEM":"UTC","SEMIMAJOR_AXIS":"6925.332","CENTER_NAME":"EARTH"},{"TIME_SYSTEM":"UTC","CENTER_NAME":"EARTH","SEMIMAJOR_AXIS":"6925.334","TLE_LINE1":"1 47846U 21018BM  23122.66641458  .00000148  00000-0  28820-4 0  9998","ELEMENT_SET_NO":"999","INCLINATION":"53.0539","REV_AT_EPOCH":"11959","FILE":"3899277","PERIAPSIS":"546.281","APOAPSIS":"548.116","EPOCH":"2023-05-02T15:59:38.219712","ECCENTRICITY":"0.00013250","OBJECT_TYPE":"PAYLOAD","TLE_LINE2":"2 47846  53.0539 249.4305 0001325  92.0452 268.0689 15.06404874119599","SITE":"AFETR","EPHEMERIS_TYPE":"0","ARG_OF_PERICENTER":"92.0452","GP_ID":"231122620","LAUNCH_DATE":"2021-03-11","DECAY_DATE":null,"PERIOD":"95.592","RA_OF_ASC_NODE":"249.4305","MEAN_ANOMALY":"268.0689","COUNTRY_CODE":"US","NORAD_CAT_ID":"47846","CLASSIFICATION_TYPE":"U","MEAN_ELEMENT_THEORY":"SGP4","BSTAR":"0.00002882000000","REF_FRAME":"TEME","MEAN_MOTION_DDOT":"0.0000000000000","OBJECT_NAME":"STARLINK-2456","OBJECT_ID":"2021-018BM","MEAN_MOTION":"15.06404874","MEAN_MOTION_DOT":"0.00000148","RCS_SIZE":"LARGE"},{"TLE_LINE2":"2 47860  53.0540 279.1198 0000695  28.7355 331.3672 15.06395233118902","EPHEMERIS_TYPE":"0","SITE":"AFETR","ARG_OF_PERICENTER":"28.7355","GP_ID":"231123365","COUNTRY_CODE":"US","MEAN_ANOMALY":"331.3672","LAUNCH_DATE":"2021-03-14","DECAY_DATE":null,"PERIOD":"95.592","RA_OF_ASC_NODE":"279.1198","REF_FRAME":"TEME","BSTAR":"0.00032370000000","MEAN_ELEMENT_THEORY":"SGP4","CLASSIFICATION_TYPE":"U","NORAD_CAT_ID":"47860","OBJECT_NAME":"STARLINK-2258","MEAN_MOTION_DDOT":"0.0000000000000","MEAN_MOTION":"15.06395233","OBJECT_ID":"2021-021A","RCS_SIZE":"LARGE","MEAN_MOTION_DOT":"0.00004543","SEMIMAJOR_AXIS":"6925.363","CENTER_NAME":"EARTH","TIME_SYSTEM":"UTC","TLE_LINE1":"1 47860U 21021A   23122.73830230  .00004543  00000-0  32370-3 0  9991","FILE":"3899277","INCLINATION":"53.0540","REV_AT_EPOCH":"11890","ELEMENT_SET_NO":"999","PERIAPSIS":"546.747","EPOCH":"2023-05-02T17:43:09.318720","APOAPSIS":"547.709","OBJECT_TYPE":"PAYLOAD","ECCENTRICITY":"0.00006950"},{"RCS_SIZE":"LARGE","MEAN_MOTION_DOT":"0.00021020","MEAN_MOTION":"15.06398462","OBJECT_ID":"2021-021B","MEAN_MOTION_DDOT":"0.0000000000000","OBJECT_NAME":"STARLINK-2280","NORAD_CAT_ID":"47861","CLASSIFICATION_TYPE":"U","REF_FRAME":"TEME","BSTAR":"0.00142590000000","MEAN_ELEMENT_THEORY":"SGP4","MEAN_ANOMALY":"309.6159","DECAY_DATE":null,"LAUNCH_DATE":"2021-03-14","PERIOD":"95.592","RA_OF_ASC_NODE":"264.0404","COUNTRY_CODE":"US","ARG_OF_PERICENTER":"50.4898","GP_ID":"231121620","SITE":"AFETR","TLE_LINE2":"2 47861  53.0544 264.0404 0000769  50.4898 309.6159 15.06398462119227","EPHEMERIS_TYPE":"0","ECCENTRICITY":"0.00007690","OBJECT_TYPE":"PAYLOAD","APOAPSIS":"547.751","EPOCH":"2023-05-02T18:09:01.928448","PERIAPSIS":"546.686","REV_AT_EPOCH":"11922","INCLINATION":"53.0544","ELEMENT_SET_NO":"999","FILE":"3899277","TLE_LINE1":"1 47861U 21021B   23122.75627232  .00021020  00000-0  14259-2 0  9994","TIME_SYSTEM":"UTC","SEMIMAJOR_AXIS":"6925.353","CENTER_NAME":"EARTH"},{"COUNTRY_CODE":"US","MEAN_ANOMALY":"281.3740","PERIOD":"95.592","DECAY_DATE":null,"LAUNCH_DATE":"2021-03-14","RA_OF_ASC_NODE":"259.4211","REF_FRAME":"TEME","MEAN_ELEMENT_THEORY":"SGP4","BSTAR":"0.00143530000000","NORAD_CAT_ID":"47862","CLASSIFICATION_TYPE":"U","EPHEMERIS_TYPE":"0","TLE_LINE2":"2 47862  53.0532 259.4211 0001143  78.7378 281.3740 15.06395572119278","SITE":"AFETR","GP_ID":"231121870","ARG_OF_PERICENTER":"78.7378","RCS_SIZE":"LARGE","MEAN_MOTION_DOT":"0.00021159","OBJECT_NAME":"STARLINK-2291","MEAN_MOTION_DDOT":"0.0000000000000","MEAN_MOTION":"15.06395572","OBJECT_ID":"2021-021C","TLE_LINE1":"1 47862U 21021C   23122.67010825  .00021159  00000-0  14353-2 0  9998","FILE":"3899277","INCLINATION":"53.0532","REV_AT_EPOCH":"11927","ELEMENT_SET_NO":"999","SEMIMAJOR_AXIS":"6925.362","CENTER_NAME":"EARTH","TIME_SYSTEM":"UTC","OBJECT_TYPE":"PAYLOAD","ECCENTRICITY":"0.00011430","PERIAPSIS":"546.436","EPOCH":"2023-05-02T16:04:57.352800","APOAPSIS":"548.019"}];
